{
  "type": "FeatureCollection",
  "features": [
    {
      "type": "Feature",
      "properties": {
        "norad_id": 31664,
        "name": "FENGYUN 1C DEB",
        "group": "fengyun-1c-debris",
        "lat": -64.4101652889401,
        "lon": 133.31794330172585,
        "alt_km": 833.4067732444082,
        "timestamp": "2025-12-06T09:34:17.197225+00:00",
        "meta_object_name": "FENGYUN 1C DEB",
        "meta_object_id": "1999-025CBW",
        "meta_epoch": "2025-12-05T22:11:58.535520",
        "meta_mean_motion": 14.1028305,
        "meta_eccentricity": 0.01245233,
        "meta_inclination": 98.7515,
        "meta_ra_of_asc_node": 331.6195,
        "meta_arg_of_pericenter": 177.3939,
        "meta_mean_anomaly": 182.7907,
        "meta_ephemeris_type": 0,
        "meta_classification_type": "U",
        "meta_norad_cat_id": 31664,
        "meta_element_set_no": 999,
        "meta_rev_at_epoch": 95905,
        "meta_bstar": 0.00052712163,
        "meta_mean_motion_dot": 9.62e-06,
        "meta_mean_motion_ddot": 0,
        "tle_line1": "1 31664U 99025CBW 25339.92498305  .00000962  00000+0  52712-3 0  9993",
        "tle_line2": "2 31664  98.7515 331.6195 0124523 177.3939 182.7907 14.10283050959057"
      },
      "geometry": {
        "type": "Point",
        "coordinates": [
          133.31794330172585,
          -64.4101652889401
        ]
      }
    },
    {
      "type": "Feature",
      "properties": {
        "norad_id": 31665,
        "name": "FENGYUN 1C DEB",
        "group": "fengyun-1c-debris",
        "lat": 50.21413457252989,
        "lon": -145.73329027125547,
        "alt_km": 904.6104675590777,
        "timestamp": "2025-12-06T09:34:17.197235+00:00",
        "meta_object_name": "FENGYUN 1C DEB",
        "meta_object_id": "1999-025CBX",
        "meta_epoch": "2025-12-05T20:47:51.749952",
        "meta_mean_motion": 13.84788429,
        "meta_eccentricity": 0.01894265,
        "meta_inclination": 98.4497,
        "meta_ra_of_asc_node": 23.5047,
        "meta_arg_of_pericenter": 205.7041,
        "meta_mean_anomaly": 153.4609,
        "meta_ephemeris_type": 0,
        "meta_classification_type": "U",
        "meta_norad_cat_id": 31665,
        "meta_element_set_no": 999,
        "meta_rev_at_epoch": 93096,
        "meta_bstar": 0.0020157681,
        "meta_mean_motion_dot": 2.573e-05,
        "meta_mean_motion_ddot": 0,
        "tle_line1": "1 31665U 99025CBX 25339.86657118  .00002573  00000+0  20158-2 0  9994",
        "tle_line2": "2 31665  98.4497  23.5047 0189426 205.7041 153.4609 13.84788429930963"
      },
      "geometry": {
        "type": "Point",
        "coordinates": [
          -145.73329027125547,
          50.21413457252989
        ]
      }
    },
    {
      "type": "Feature",
      "properties": {
        "norad_id": 31666,
        "name": "FENGYUN 1C DEB",
        "group": "fengyun-1c-debris",
        "lat": 70.94714692612295,
        "lon": -25.277701344837887,
        "alt_km": 604.8542787139959,
        "timestamp": "2025-12-06T09:34:17.197245+00:00",
        "meta_object_name": "FENGYUN 1C DEB",
        "meta_object_id": "1999-025CBY",
        "meta_epoch": "2025-12-05T08:48:09.688320",
        "meta_mean_motion": 14.83101125,
        "meta_eccentricity": 0.00254833,
        "meta_inclination": 98.6563,
        "meta_ra_of_asc_node": 127.43,
        "meta_arg_of_pericenter": 175.7736,
        "meta_mean_anomaly": 184.3695,
        "meta_ephemeris_type": 0,
        "meta_classification_type": "U",
        "meta_norad_cat_id": 31666,
        "meta_element_set_no": 999,
        "meta_rev_at_epoch": 97162,
        "meta_bstar": 0.0075217747,
        "meta_mean_motion_dot": 0.00062097,
        "meta_mean_motion_ddot": 0,
        "tle_line1": "1 31666U 99025CBY 25339.36677880  .00062097  00000+0  75218-2 0  9992",
        "tle_line2": "2 31666  98.6563 127.4300 0025483 175.7736 184.3695 14.83101125971623"
      },
      "geometry": {
        "type": "Point",
        "coordinates": [
          -25.277701344837887,
          70.94714692612295
        ]
      }
    },
    {
      "type": "Feature",
      "properties": {
        "norad_id": 31667,
        "name": "FENGYUN 1C DEB",
        "group": "fengyun-1c-debris",
        "lat": 33.2388347190107,
        "lon": 18.209637648515873,
        "alt_km": 783.3516938241628,
        "timestamp": "2025-12-06T09:34:17.197255+00:00",
        "meta_object_name": "FENGYUN 1C DEB",
        "meta_object_id": "1999-025CBZ",
        "meta_epoch": "2025-12-03T10:02:22.672608",
        "meta_mean_motion": 14.2348358,
        "meta_eccentricity": 0.00516043,
        "meta_inclination": 99.0856,
        "meta_ra_of_asc_node": 189.1139,
        "meta_arg_of_pericenter": 113.7693,
        "meta_mean_anomaly": 246.8908,
        "meta_ephemeris_type": 0,
        "meta_classification_type": "U",
        "meta_norad_cat_id": 31667,
        "meta_element_set_no": 999,
        "meta_rev_at_epoch": 55860,
        "meta_bstar": 0.0003571101,
        "meta_mean_motion_dot": 7.76e-06,
        "meta_mean_motion_ddot": 0,
        "tle_line1": "1 31667U 99025CBZ 25337.41831797  .00000776  00000+0  35711-3 0  9997",
        "tle_line2": "2 31667  99.0856 189.1139 0051604 113.7693 246.8908 14.23483580558609"
      },
      "geometry": {
        "type": "Point",
        "coordinates": [
          18.209637648515873,
          33.2388347190107
        ]
      }
    },
    {
      "type": "Feature",
      "properties": {
        "norad_id": 31672,
        "name": "FENGYUN 1C DEB",
        "group": "fengyun-1c-debris",
        "lat": -42.78811522277583,
        "lon": 175.98507032128444,
        "alt_km": 674.1187168982979,
        "timestamp": "2025-12-06T09:34:17.197265+00:00",
        "meta_object_name": "FENGYUN 1C DEB",
        "meta_object_id": "1999-025CCE",
        "meta_epoch": "2025-12-05T18:52:14.443392",
        "meta_mean_motion": 14.50788876,
        "meta_eccentricity": 0.01081402,
        "meta_inclination": 98.9567,
        "meta_ra_of_asc_node": 166.9392,
        "meta_arg_of_pericenter": 2.6293,
        "meta_mean_anomaly": 357.5445,
        "meta_ephemeris_type": 0,
        "meta_classification_type": "U",
        "meta_norad_cat_id": 31672,
        "meta_element_set_no": 999,
        "meta_rev_at_epoch": 64770,
        "meta_bstar": 0.0027708816,
        "meta_mean_motion_dot": 0.0001173,
        "meta_mean_motion_ddot": 0,
        "tle_line1": "1 31672U 99025CCE 25339.78627828  .00011730  00000+0  27709-2 0  9992",
        "tle_line2": "2 31672  98.9567 166.9392 0108140   2.6293 357.5445 14.50788876647708"
      },
      "geometry": {
        "type": "Point",
        "coordinates": [
          175.98507032128444,
          -42.78811522277583
        ]
      }
    },
    {
      "type": "Feature",
      "properties": {
        "norad_id": 31673,
        "name": "FENGYUN 1C DEB",
        "group": "fengyun-1c-debris",
        "lat": 18.34538102862455,
        "lon": 171.21998551084346,
        "alt_km": 725.0071339799842,
        "timestamp": "2025-12-06T09:34:17.197276+00:00",
        "meta_object_name": "FENGYUN 1C DEB",
        "meta_object_id": "1999-025CCF",
        "meta_epoch": "2025-12-01T12:05:46.557312",
        "meta_mean_motion": 14.31920513,
        "meta_eccentricity": 0.01258857,
        "meta_inclination": 99.374,
        "meta_ra_of_asc_node": 169.0754,
        "meta_arg_of_pericenter": 81.1692,
        "meta_mean_anomaly": 280.3719,
        "meta_ephemeris_type": 0,
        "meta_classification_type": "U",
        "meta_norad_cat_id": 31673,
        "meta_element_set_no": 999,
        "meta_rev_at_epoch": 64730,
        "meta_bstar": 0.00025702529,
        "meta_mean_motion_dot": 7e-06,
        "meta_mean_motion_ddot": 0,
        "tle_line1": "1 31673U 99025CCF 25335.50401108  .00000700  00000+0  25703-3 0  9998",
        "tle_line2": "2 31673  99.3740 169.0754 0125885  81.1692 280.3719 14.31920513647301"
      },
      "geometry": {
        "type": "Point",
        "coordinates": [
          171.21998551084346,
          18.34538102862455
        ]
      }
    },
    {
      "type": "Feature",
      "properties": {
        "norad_id": 31674,
        "name": "FENGYUN 1C DEB",
        "group": "fengyun-1c-debris",
        "lat": 54.94902728168175,
        "lon": 3.3710618948802424,
        "alt_km": 721.1394740646128,
        "timestamp": "2025-12-06T09:34:17.197286+00:00",
        "meta_object_name": "FENGYUN 1C DEB",
        "meta_object_id": "1999-025CCG",
        "meta_epoch": "2025-12-05T08:30:03.134016",
        "meta_mean_motion": 14.51617675,
        "meta_eccentricity": 0.00240582,
        "meta_inclination": 98.9259,
        "meta_ra_of_asc_node": 15.2079,
        "meta_arg_of_pericenter": 307.9114,
        "meta_mean_anomaly": 51.9904,
        "meta_ephemeris_type": 0,
        "meta_classification_type": "U",
        "meta_norad_cat_id": 31674,
        "meta_element_set_no": 999,
        "meta_rev_at_epoch": 64507,
        "meta_bstar": 0.0051157727,
        "meta_mean_motion_dot": 0.00020586,
        "meta_mean_motion_ddot": 0,
        "tle_line1": "1 31674U 99025CCG 25339.35420294  .00020586  00000+0  51158-2 0  9999",
        "tle_line2": "2 31674  98.9259  15.2079 0024058 307.9114  51.9904 14.51617675645076"
      },
      "geometry": {
        "type": "Point",
        "coordinates": [
          3.3710618948802424,
          54.94902728168175
        ]
      }
    }
  ]
}